LEMUR-1                 
1 40044U 14033AL  26177.92775197  .00001903  00000+0  22318-3 0  9994
2 40044  97.7885 327.5167 0049225  47.4650 313.0706 14.85280590646915
LEMUR-2-GREENBERG       
1 42837U 17042N   26178.01858903  .00017161  00000+0  56347-3 0  9999
2 42837  97.3817 358.5998 0007623 336.6997  23.3898 15.31620655489894
LEMUR-2-ANDIS           
1 42838U 17042P   26178.02512521  .00022466  00000+0  65753-3 0  9999
2 42838  97.3675 358.8246 0007399 334.0526  26.0345 15.35228905489967
LEMUR-2-MONSON          
1 42839U 17042Q   26177.98328245  .00017414  00000+0  63371-3 0  9993
2 42839  97.4078 358.5219 0005450 327.2375  32.8525 15.28282349489661
LEMUR-2-FURIAUS         
1 42840U 17042R   26178.01923730  .00018720  00000+0  63468-3 0  9998
2 42840  97.3765 356.5335 0007495  37.4370 322.7392 15.30565551489719
LEMUR-2-PETERG          
1 42841U 17042S   26178.01539602  .00025838  00000+0  77889-3 0  9990
2 42841  97.3987   3.0637 0002703 309.6347  50.4657 15.34291191489944
LEMUR-2-DEMBITZ         
1 42842U 17042T   26178.03890766  .00016892  00000+0  57302-3 0  9992
2 42842  97.3821 359.5844 0005852 353.2683   6.8478 15.30580683489856
LEMUR-2-ZACHARY         
1 42845U 17042W   26178.06331450  .00051506  00000+0  88088-3 0  9994
2 42845  97.3587   9.9154 0002342 345.0877  15.0305 15.51110441490737
LEMUR-2-AMANDA-SVANTE   
1 48269U 21034B   26178.20373666  .00036418  00000+0  10749-2 0  9990
2 48269  97.5761 256.7558 0003332 181.8054 178.3177 15.34886264282599
LEMUR-2-SPECIAL-K       
1 48273U 21034F   26178.18262691  .00194451  00000+0  17556-2 0  9992
2 48273  97.5654 265.7839 0005078 222.4824 137.6044 15.67512069283253
LEMUR-2-EMBRIONOVIS     
1 56970U 23084AQ  26177.96311583  .00014353  00000+0  38835-3 0  9998
2 56970  97.6292 322.5392 0007438 279.6247  80.4156 15.37786701169183
LEMUR-2-DEVERILL-M-T    
1 57391U 23100F   26178.04620647  .00027997  00000+0  69724-3 0  9998
2 57391  99.4473 219.6539 0005400  14.6065 345.5330 15.40226112162768
LEMUR-2-BASS            
1 58259U 23174D   26178.19576295  .00019636  00000+0  44024-3 0  9995
2 58259  97.3854 263.0492 0008080 131.9313 228.2625 15.43421799146902
LEMUR-2-JK0903EM1407    
1 58336U 23174CJ  26178.20248433  .00029893  00000+0  49390-3 0  9990
2 58336  97.3932 268.9571 0005068  90.3801 269.8032 15.52184890147283
LEMUR-2-MJR092620       
1 58340U 23174CN  26178.19742558  .00021051  00000+0  44389-3 0  9991
2 58340  97.3983 268.4126 0006819  87.9354 272.2675 15.45234948147198
LEMUR-2-NIMBUS2000      
1 58899U 24022A   26178.14917419  .00023626  00000+0  58465-3 0  9998
2 58899  97.4103  28.2774 0010251  86.0612 274.1805 15.40389849133800
LEMUR-2-VALHALLA        
1 58900U 24022B   26178.14775487  .00017174  00000+0  43179-3 0  9995
2 58900  97.4102  28.2609 0010745  81.9469 278.2996 15.39966041133800
LEMUR-2-CAEL            
1 58903U 24022E   26178.08417890  .00018242  00000+0  43923-3 0  9996
2 58903  97.4082  29.1500 0008916  68.4162 291.8034 15.41286446133864
LEMUR-2-JOHNNYTRUONG    
1 59146U 24043BA  26177.95920030  .00043312  00000+0  51174-3 0  9992
2 59146  97.5373 330.2724 0004838 147.1214 213.0344 15.61185783129560
LEMUR-2-TOMATOKECHUP    
1 60471U 24149D   26178.20421316  .00011169  00000+0  31843-3 0  9990
2 60471  97.3805 260.2770 0002301 156.5261 203.6088 15.36233630103708
LEMUR-2-STELLA          
1 60533U 24149BT  26178.20786264  .00011335  00000+0  66323-3 0  9991
2 60533  97.6743 260.7072 0001399  98.6856 261.4532 15.12013491102017
LEMUR-2-MARHISYAM       
1 60536U 24149BW  26178.19185743  .00011290  00000+0  67100-3 0  9991
2 60536  97.6883 261.1503 0003184 100.0512 260.1077 15.11447359101999
LEMUR-2-AHMED-ASRAR     
1 60576U 24149DN  26178.21631433  .00012159  00000+0  69329-3 0  9990
2 60576  97.7011 263.3065 0000889  16.1028 344.0231 15.12930741102080
LEMUR-2-LLOYD           
1 60577U 24149DP  26178.18566157  .00011352  00000+0  71308-3 0  9991
2 60577  97.6747 259.3202 0005015 115.7211 244.4535 15.09422988101905
LEMUR-2-SQUIRRELCOMM    
1 60578U 24149DQ  26178.14750672  .00006349  00000+0  42500-3 0  9997
2 60578  97.6718 259.0275 0005836  34.8164 325.3445 15.07262377101901
LEMUR-2-SIERRINI        
1 60579U 24149DR  26178.21742808  .00011980  00000+0  71724-3 0  9995
2 60579  97.6848 260.8543 0006525 136.4393 223.7353 15.11153287101973
LEMUR-2-WILSON          
1 62694U 25009CP  26178.20034812  .00002081  00000+0  19449-3 0  9997
2 62694  97.7026 256.4893 0003473  28.7668 331.3744 14.95206048 78853
LEMUR-2-STAR-FOX        
1 62696U 25009CR  26178.21515272  .00005925  00000+0  44910-3 0  9995
2 62696  97.6957 259.7519 0004360  91.4490 268.7234 15.02622968 79067
LEMUR-2-ARIANNA         
1 62699U 25009CU  26178.21360411  .00007870  00000+0  59490-3 0  9991
2 62699  97.6897 259.5168 0004723  95.6976 264.4787 15.02621026 79069
LEMUR-2-ALISIA          
1 62706U 25009DB  26178.18964282  .00008927  00000+0  66923-3 0  9995
2 62706  97.6937 260.2900 0002798 182.1274 177.9940 15.02904295101662
