OBJECT_NAME,OBJECT_ID,EPOCH,MEAN_MOTION,ECCENTRICITY,INCLINATION,RA_OF_ASC_NODE,ARG_OF_PERICENTER,MEAN_ANOMALY,EPHEMERIS_TYPE,CLASSIFICATION_TYPE,NORAD_CAT_ID,ELEMENT_SET_NO,REV_AT_EPOCH,BSTAR,MEAN_MOTION_DOT,MEAN_MOTION_DDOT
LEMUR-1,2014-033AL,2026-06-26T22:15:57.770208,14.85280590,.0049225,97.7885,327.5167,47.4650,313.0706,0,U,40044,999,64691,.22318E-3,.1903E-4,0
LEMUR-2-GREENBERG,2017-042N,2026-06-27T00:26:46.092192,15.31620655,.0007623,97.3817,358.5998,336.6997,23.3898,0,U,42837,999,48989,.56347E-3,.17161E-3,0
LEMUR-2-ANDIS,2017-042P,2026-06-27T00:36:10.818144,15.35228905,.0007399,97.3675,358.8246,334.0526,26.0345,0,U,42838,999,48996,.65753E-3,.22466E-3,0
LEMUR-2-MONSON,2017-042Q,2026-06-26T23:35:55.603680,15.28282349,.000545,97.4078,358.5219,327.2375,32.8525,0,U,42839,999,48966,.63371E-3,.17414E-3,0
LEMUR-2-FURIAUS,2017-042R,2026-06-27T00:27:42.102720,15.30565551,.0007495,97.3765,356.5335,37.4370,322.7392,0,U,42840,999,48971,.63468E-3,.1872E-3,0
LEMUR-2-PETERG,2017-042S,2026-06-27T00:22:10.216128,15.34291191,.0002703,97.3987,3.0637,309.6347,50.4657,0,U,42841,999,48994,.77889E-3,.25838E-3,0
LEMUR-2-DEMBITZ,2017-042T,2026-06-27T00:56:01.621824,15.30580683,.0005852,97.3821,359.5844,353.2683,6.8478,0,U,42842,999,48985,.57302E-3,.16892E-3,0
LEMUR-2-ZACHARY,2017-042W,2026-06-27T01:31:10.372800,15.51110441,.0002342,97.3587,9.9154,345.0877,15.0305,0,U,42845,999,49073,.88088E-3,.51506E-3,0
LEMUR-2-AMANDA-SVANTE,2021-034B,2026-06-27T04:53:22.847424,15.34886264,.0003332,97.5761,256.7558,181.8054,178.3177,0,U,48269,999,28259,.10749E-2,.36418E-3,0
LEMUR-2-SPECIAL-K,2021-034F,2026-06-27T04:22:58.965024,15.67512069,.0005078,97.5654,265.7839,222.4824,137.6044,0,U,48273,999,28325,.17556E-2,.194451E-2,0
LEMUR-2-EMBRIONOVIS,2023-084AQ,2026-06-26T23:06:53.207712,15.37786701,.0007438,97.6292,322.5392,279.6247,80.4156,0,U,56970,999,16918,.38835E-3,.14353E-3,0
LEMUR-2-DEVERILL-M-T,2023-100F,2026-06-27T01:06:32.239008,15.40226112,.00054,99.4473,219.6539,14.6065,345.5330,0,U,57391,999,16276,.69724E-3,.27997E-3,0
LEMUR-2-BASS,2023-174D,2026-06-27T04:41:53.918880,15.43421799,.000808,97.3854,263.0492,131.9313,228.2625,0,U,58259,999,14690,.44024E-3,.19636E-3,0
LEMUR-2-JK0903EM1407,2023-174CJ,2026-06-27T04:51:34.646112,15.52184890,.0005068,97.3932,268.9571,90.3801,269.8032,0,U,58336,999,14728,.4939E-3,.29893E-3,0
LEMUR-2-MJR092620,2023-174CN,2026-06-27T04:44:17.570112,15.45234948,.0006819,97.3983,268.4126,87.9354,272.2675,0,U,58340,999,14719,.44389E-3,.21051E-3,0
LEMUR-2-NIMBUS2000,2024-022A,2026-06-27T03:34:48.650016,15.40389849,.0010251,97.4103,28.2774,86.0612,274.1805,0,U,58899,999,13380,.58465E-3,.23626E-3,0
LEMUR-2-VALHALLA,2024-022B,2026-06-27T03:32:46.020768,15.39966041,.0010745,97.4102,28.2609,81.9469,278.2996,0,U,58900,999,13380,.43179E-3,.17174E-3,0
LEMUR-2-CAEL,2024-022E,2026-06-27T02:01:13.056960,15.41286446,.0008916,97.4082,29.1500,68.4162,291.8034,0,U,58903,999,13386,.43923E-3,.18242E-3,0
LEMUR-2-JOHNNYTRUONG,2024-043BA,2026-06-26T23:01:14.905920,15.61185783,.0004838,97.5373,330.2724,147.1214,213.0344,0,U,59146,999,12956,.51174E-3,.43312E-3,0
LEMUR-2-TOMATOKECHUP,2024-149D,2026-06-27T04:54:04.017024,15.36233630,.0002301,97.3805,260.2770,156.5261,203.6088,0,U,60471,999,10370,.31843E-3,.11169E-3,0
LEMUR-2-STELLA,2024-149BT,2026-06-27T04:59:19.332096,15.12013491,.0001399,97.6743,260.7072,98.6856,261.4532,0,U,60533,999,10201,.66323E-3,.11335E-3,0
LEMUR-2-MARHISYAM,2024-149BW,2026-06-27T04:36:16.481952,15.11447359,.0003184,97.6883,261.1503,100.0512,260.1077,0,U,60536,999,10199,.671E-3,.1129E-3,0
LEMUR-2-AHMED-ASRAR,2024-149DN,2026-06-27T05:11:29.558112,15.12930741,.0000889,97.7011,263.3065,16.1028,344.0231,0,U,60576,999,10208,.69329E-3,.12159E-3,0
LEMUR-2-LLOYD,2024-149DP,2026-06-27T04:27:21.159648,15.09422988,.0005015,97.6747,259.3202,115.7211,244.4535,0,U,60577,999,10190,.71308E-3,.11352E-3,0
LEMUR-2-SQUIRRELCOMM,2024-149DQ,2026-06-27T03:32:24.580608,15.07262377,.0005836,97.6718,259.0275,34.8164,325.3445,0,U,60578,999,10190,.425E-3,.6349E-4,0
LEMUR-2-SIERRINI,2024-149DR,2026-06-27T05:13:05.786112,15.11153287,.0006525,97.6848,260.8543,136.4393,223.7353,0,U,60579,999,10197,.71724E-3,.1198E-3,0
LEMUR-2-WILSON,2025-009CP,2026-06-27T04:48:30.077568,14.95206048,.0003473,97.7026,256.4893,28.7668,331.3744,0,U,62694,999,7885,.19449E-3,.2081E-4,0
LEMUR-2-STAR-FOX,2025-009CR,2026-06-27T05:09:49.195008,15.02622968,.000436,97.6957,259.7519,91.4490,268.7234,0,U,62696,999,7906,.4491E-3,.5925E-4,0
LEMUR-2-ARIANNA,2025-009CU,2026-06-27T05:07:35.395104,15.02621026,.0004723,97.6897,259.5168,95.6976,264.4787,0,U,62699,999,7906,.5949E-3,.787E-4,0
LEMUR-2-ALISIA,2025-009DB,2026-06-27T04:33:05.139648,15.02904295,.0002798,97.6937,260.2900,182.1274,177.9940,0,U,62706,999,10166,.66923E-3,.8927E-4,0
